{
  "type": "FeatureCollection",
  "features": [
    {
      "type": "Feature",
      "properties": {
        "norad_id": 67047,
        "name": "STARLINK-35779",
        "group": "last-30-days",
        "lat": -40.51725140245045,
        "lon": 7.5877220929451745,
        "alt_km": 327.86668974411805,
        "timestamp": "2025-12-22T16:55:16.170176+00:00",
        "meta_object_name": "STARLINK-35779",
        "meta_object_id": "2025-294T",
        "meta_epoch": "2025-12-22T06:00:02.000160",
        "meta_mean_motion": 15.83589922,
        "meta_eccentricity": 0.0001047,
        "meta_inclination": 43,
        "meta_ra_of_asc_node": 123.8712,
        "meta_arg_of_pericenter": 270.3417,
        "meta_mean_anomaly": 266.3194,
        "meta_ephemeris_type": 0,
        "meta_classification_type": "U",
        "meta_norad_cat_id": 67047,
        "meta_element_set_no": 999,
        "meta_rev_at_epoch": 164,
        "meta_bstar": -0.0096473887,
        "meta_mean_motion_dot": -0.01910382,
        "meta_mean_motion_ddot": 0,
        "tle_line1": "1 67047U 25294T   25356.25002315 -.01910382  00000+0 -96474-2 0  9992",
        "tle_line2": "2 67047  43.0000 123.8712 0001047 270.3417 266.3194 15.83589922  1647"
      },
      "geometry": {
        "type": "Point",
        "coordinates": [
          7.5877220929451745,
          -40.51725140245045
        ]
      }
    },
    {
      "type": "Feature",
      "properties": {
        "norad_id": 67048,
        "name": "STARLINK-35905",
        "group": "last-30-days",
        "lat": -41.02672059652826,
        "lon": 10.101560336954941,
        "alt_km": 328.0226533842215,
        "timestamp": "2025-12-22T16:55:16.170186+00:00",
        "meta_object_name": "STARLINK-35905",
        "meta_object_id": "2025-294U",
        "meta_epoch": "2025-12-22T06:00:02.000160",
        "meta_mean_motion": 15.83495278,
        "meta_eccentricity": 9.416e-05,
        "meta_inclination": 43.0002,
        "meta_ra_of_asc_node": 123.866,
        "meta_arg_of_pericenter": 271.0652,
        "meta_mean_anomaly": 267.6477,
        "meta_ephemeris_type": 0,
        "meta_classification_type": "U",
        "meta_norad_cat_id": 67048,
        "meta_element_set_no": 999,
        "meta_rev_at_epoch": 175,
        "meta_bstar": -0.0091692589,
        "meta_mean_motion_dot": -0.01820067,
        "meta_mean_motion_ddot": 0,
        "tle_line1": "1 67048U 25294U   25356.25002315 -.01820067  00000+0 -91693-2 0  9991",
        "tle_line2": "2 67048  43.0002 123.8660 0000941 271.0652 267.6477 15.83495278  1753"
      },
      "geometry": {
        "type": "Point",
        "coordinates": [
          10.101560336954941,
          -41.02672059652826
        ]
      }
    },
    {
      "type": "Feature",
      "properties": {
        "norad_id": 67049,
        "name": "STARLINK-35877",
        "group": "last-30-days",
        "lat": -41.569537775852304,
        "lon": 13.198788085507008,
        "alt_km": 327.89987435143485,
        "timestamp": "2025-12-22T16:55:16.170196+00:00",
        "meta_object_name": "STARLINK-35877",
        "meta_object_id": "2025-294V",
        "meta_epoch": "2025-12-22T06:00:02.000160",
        "meta_mean_motion": 15.8357899,
        "meta_eccentricity": 0.00011047,
        "meta_inclination": 43.0004,
        "meta_ra_of_asc_node": 123.8601,
        "meta_arg_of_pericenter": 267.2606,
        "meta_mean_anomaly": 273.8016,
        "meta_ephemeris_type": 0,
        "meta_classification_type": "U",
        "meta_norad_cat_id": 67049,
        "meta_element_set_no": 999,
        "meta_rev_at_epoch": 183,
        "meta_bstar": -0.0097180972,
        "meta_mean_motion_dot": -0.01921721,
        "meta_mean_motion_ddot": 0,
        "tle_line1": "1 67049U 25294V   25356.25002315 -.01921721  00000+0 -97181-2 0  9999",
        "tle_line2": "2 67049  43.0004 123.8601 0001104 267.2606 273.8016 15.83578990  1839"
      },
      "geometry": {
        "type": "Point",
        "coordinates": [
          13.198788085507008,
          -41.569537775852304
        ]
      }
    },
    {
      "type": "Feature",
      "properties": {
        "norad_id": 67050,
        "name": "STARLINK-36078",
        "group": "last-30-days",
        "lat": -42.03101442430762,
        "lon": 16.372957841136,
        "alt_km": 327.83924419899813,
        "timestamp": "2025-12-22T16:55:16.170220+00:00",
        "meta_object_name": "STARLINK-36078",
        "meta_object_id": "2025-294W",
        "meta_epoch": "2025-12-22T06:00:02.000160",
        "meta_mean_motion": 15.83557826,
        "meta_eccentricity": 0.00012618,
        "meta_inclination": 43.0003,
        "meta_ra_of_asc_node": 123.854,
        "meta_arg_of_pericenter": 264.3742,
        "meta_mean_anomaly": 279.1346,
        "meta_ephemeris_type": 0,
        "meta_classification_type": "U",
        "meta_norad_cat_id": 67050,
        "meta_element_set_no": 999,
        "meta_rev_at_epoch": 175,
        "meta_bstar": -0.0096923476,
        "meta_mean_motion_dot": -0.01915753,
        "meta_mean_motion_ddot": 0,
        "tle_line1": "1 67050U 25294W   25356.25002315 -.01915753  00000+0 -96923-2 0  9992",
        "tle_line2": "2 67050  43.0003 123.8540 0001261 264.3742 279.1346 15.83557826  1756"
      },
      "geometry": {
        "type": "Point",
        "coordinates": [
          16.372957841136,
          -42.03101442430762
        ]
      }
    },
    {
      "type": "Feature",
      "properties": {
        "norad_id": 67051,
        "name": "STARLINK-35706",
        "group": "last-30-days",
        "lat": -42.400832726558605,
        "lon": 19.561489230203396,
        "alt_km": 327.81738410620983,
        "timestamp": "2025-12-22T16:55:16.170231+00:00",
        "meta_object_name": "STARLINK-35706",
        "meta_object_id": "2025-294X",
        "meta_epoch": "2025-12-22T06:00:02.000160",
        "meta_mean_motion": 15.83540312,
        "meta_eccentricity": 0.00013988,
        "meta_inclination": 43.0003,
        "meta_ra_of_asc_node": 123.8477,
        "meta_arg_of_pericenter": 266.5871,
        "meta_mean_anomaly": 279.3517,
        "meta_ephemeris_type": 0,
        "meta_classification_type": "U",
        "meta_norad_cat_id": 67051,
        "meta_element_set_no": 999,
        "meta_rev_at_epoch": 183,
        "meta_bstar": -0.0097143119,
        "meta_mean_motion_dot": -0.01918257,
        "meta_mean_motion_ddot": 0,
        "tle_line1": "1 67051U 25294X   25356.25002315 -.01918257  00000+0 -97143-2 0  9990",
        "tle_line2": "2 67051  43.0003 123.8477 0001398 266.5871 279.3517 15.83540312  1837"
      },
      "geometry": {
        "type": "Point",
        "coordinates": [
          19.561489230203396,
          -42.400832726558605
        ]
      }
    },
    {
      "type": "Feature",
      "properties": {
        "norad_id": 67052,
        "name": "STARLINK-35720",
        "group": "last-30-days",
        "lat": -42.6410058581719,
        "lon": 22.248648557057507,
        "alt_km": 327.9717735263175,
        "timestamp": "2025-12-22T16:55:16.170244+00:00",
        "meta_object_name": "STARLINK-35720",
        "meta_object_id": "2025-294Y",
        "meta_epoch": "2025-12-22T06:00:02.000160",
        "meta_mean_motion": 15.83536912,
        "meta_eccentricity": 0.00011973,
        "meta_inclination": 43.0004,
        "meta_ra_of_asc_node": 123.8428,
        "meta_arg_of_pericenter": 268.6367,
        "meta_mean_anomaly": 279.3079,
        "meta_ephemeris_type": 0,
        "meta_classification_type": "U",
        "meta_norad_cat_id": 67052,
        "meta_element_set_no": 999,
        "meta_rev_at_epoch": 182,
        "meta_bstar": -0.0097079358,
        "meta_mean_motion_dot": -0.01916688,
        "meta_mean_motion_ddot": 0,
        "tle_line1": "1 67052U 25294Y   25356.25002315 -.01916688  00000+0 -97079-2 0  9995",
        "tle_line2": "2 67052  43.0004 123.8428 0001197 268.6367 279.3079 15.83536912  1828"
      },
      "geometry": {
        "type": "Point",
        "coordinates": [
          22.248648557057507,
          -42.6410058581719
        ]
      }
    },
    {
      "type": "Feature",
      "properties": {
        "norad_id": 67053,
        "name": "STARLINK-35739",
        "group": "last-30-days",
        "lat": -42.83477977014734,
        "lon": 25.28267958651914,
        "alt_km": 327.928876395461,
        "timestamp": "2025-12-22T16:55:16.170254+00:00",
        "meta_object_name": "STARLINK-35739",
        "meta_object_id": "2025-294Z",
        "meta_epoch": "2025-12-22T06:00:02.000160",
        "meta_mean_motion": 15.83525931,
        "meta_eccentricity": 0.00013099,
        "meta_inclination": 43.0005,
        "meta_ra_of_asc_node": 123.8368,
        "meta_arg_of_pericenter": 267.1459,
        "meta_mean_anomaly": 283.0607,
        "meta_ephemeris_type": 0,
        "meta_classification_type": "U",
        "meta_norad_cat_id": 67053,
        "meta_element_set_no": 999,
        "meta_rev_at_epoch": 148,
        "meta_bstar": -0.0097154766,
        "meta_mean_motion_dot": -0.01917213,
        "meta_mean_motion_ddot": 0,
        "tle_line1": "1 67053U 25294Z   25356.25002315 -.01917213  00000+0 -97155-2 0  9996",
        "tle_line2": "2 67053  43.0005 123.8368 0001309 267.1459 283.0607 15.83525931  1484"
      },
      "geometry": {
        "type": "Point",
        "coordinates": [
          25.28267958651914,
          -42.83477977014734
        ]
      }
    }
  ]
}